<?xml version="1.0" encoding="UTF-8"?>
<ndm xmlns:xsi="http://www.w3.org/2001/XMLSchema-instance" xsi:noNamespaceSchemaLocation="https://sanaregistry.org/r/ndmxml_unqualified/ndmxml-2.0.0-master-2.0.xsd">
<omm id="CCSDS_OMM_VERS" version="2.0">
<header><CREATION_DATE/><ORIGINATOR/></header><body><segment><metadata><OBJECT_NAME>KUIPER-00061</OBJECT_NAME><OBJECT_ID>2025-134X</OBJECT_ID><CENTER_NAME>EARTH</CENTER_NAME><REF_FRAME>TEME</REF_FRAME><TIME_SYSTEM>UTC</TIME_SYSTEM><MEAN_ELEMENT_THEORY>SGP4</MEAN_ELEMENT_THEORY></metadata><data><meanElements><EPOCH>2025-08-16T06:38:03.280704</EPOCH><MEAN_MOTION>15.36190453</MEAN_MOTION><ECCENTRICITY>.0006351</ECCENTRICITY><INCLINATION>51.8754</INCLINATION><RA_OF_ASC_NODE>71.4483</RA_OF_ASC_NODE><ARG_OF_PERICENTER>296.1214</ARG_OF_PERICENTER><MEAN_ANOMALY>63.9119</MEAN_ANOMALY></meanElements><tleParameters><EPHEMERIS_TYPE>0</EPHEMERIS_TYPE><CLASSIFICATION_TYPE>U</CLASSIFICATION_TYPE><NORAD_CAT_ID>64521</NORAD_CAT_ID><ELEMENT_SET_NO>999</ELEMENT_SET_NO><REV_AT_EPOCH>905</REV_AT_EPOCH><BSTAR>.99264E-3</BSTAR><MEAN_MOTION_DOT>.35347E-3</MEAN_MOTION_DOT><MEAN_MOTION_DDOT>0</MEAN_MOTION_DDOT></tleParameters></data></segment></body></omm>
<omm id="CCSDS_OMM_VERS" version="2.0">
<header><CREATION_DATE/><ORIGINATOR/></header><body><segment><metadata><OBJECT_NAME>KUIPER-00062</OBJECT_NAME><OBJECT_ID>2025-134Y</OBJECT_ID><CENTER_NAME>EARTH</CENTER_NAME><REF_FRAME>TEME</REF_FRAME><TIME_SYSTEM>UTC</TIME_SYSTEM><MEAN_ELEMENT_THEORY>SGP4</MEAN_ELEMENT_THEORY></metadata><data><meanElements><EPOCH>2025-08-16T10:00:01.999584</EPOCH><MEAN_MOTION>15.17480349</MEAN_MOTION><ECCENTRICITY>.0008165</ECCENTRICITY><INCLINATION>51.8828</INCLINATION><RA_OF_ASC_NODE>72.1992</RA_OF_ASC_NODE><ARG_OF_PERICENTER>310.4253</ARG_OF_PERICENTER><MEAN_ANOMALY>165.5289</MEAN_ANOMALY></meanElements><tleParameters><EPHEMERIS_TYPE>0</EPHEMERIS_TYPE><CLASSIFICATION_TYPE>U</CLASSIFICATION_TYPE><NORAD_CAT_ID>64522</NORAD_CAT_ID><ELEMENT_SET_NO>999</ELEMENT_SET_NO><REV_AT_EPOCH>905</REV_AT_EPOCH><BSTAR>.18003E-2</BSTAR><MEAN_MOTION_DOT>.36428E-3</MEAN_MOTION_DOT><MEAN_MOTION_DDOT>0</MEAN_MOTION_DDOT></tleParameters></data></segment></body></omm>
<omm id="CCSDS_OMM_VERS" version="2.0">
<header><CREATION_DATE/><ORIGINATOR/></header><body><segment><metadata><OBJECT_NAME>KUIPER-00063</OBJECT_NAME><OBJECT_ID>2025-134Z</OBJECT_ID><CENTER_NAME>EARTH</CENTER_NAME><REF_FRAME>TEME</REF_FRAME><TIME_SYSTEM>UTC</TIME_SYSTEM><MEAN_ELEMENT_THEORY>SGP4</MEAN_ELEMENT_THEORY></metadata><data><meanElements><EPOCH>2025-08-16T10:00:01.999584</EPOCH><MEAN_MOTION>15.20196038</MEAN_MOTION><ECCENTRICITY>.0005488</ECCENTRICITY><INCLINATION>51.8794</INCLINATION><RA_OF_ASC_NODE>71.4399</RA_OF_ASC_NODE><ARG_OF_PERICENTER>245.5250</ARG_OF_PERICENTER><MEAN_ANOMALY>205.8835</MEAN_ANOMALY></meanElements><tleParameters><EPHEMERIS_TYPE>0</EPHEMERIS_TYPE><CLASSIFICATION_TYPE>U</CLASSIFICATION_TYPE><NORAD_CAT_ID>64523</NORAD_CAT_ID><ELEMENT_SET_NO>999</ELEMENT_SET_NO><REV_AT_EPOCH>906</REV_AT_EPOCH><BSTAR>.21341E-2</BSTAR><MEAN_MOTION_DOT>.46838E-3</MEAN_MOTION_DOT><MEAN_MOTION_DDOT>0</MEAN_MOTION_DDOT></tleParameters></data></segment></body></omm>
<omm id="CCSDS_OMM_VERS" version="2.0">
<header><CREATION_DATE/><ORIGINATOR/></header><body><segment><metadata><OBJECT_NAME>KUIPER-00064</OBJECT_NAME><OBJECT_ID>2025-134AA</OBJECT_ID><CENTER_NAME>EARTH</CENTER_NAME><REF_FRAME>TEME</REF_FRAME><TIME_SYSTEM>UTC</TIME_SYSTEM><MEAN_ELEMENT_THEORY>SGP4</MEAN_ELEMENT_THEORY></metadata><data><meanElements><EPOCH>2025-08-16T10:00:01.999584</EPOCH><MEAN_MOTION>15.24759377</MEAN_MOTION><ECCENTRICITY>.0002359</ECCENTRICITY><INCLINATION>51.8828</INCLINATION><RA_OF_ASC_NODE>70.9444</RA_OF_ASC_NODE><ARG_OF_PERICENTER>10.4554</ARG_OF_PERICENTER><MEAN_ANOMALY>352.9574</MEAN_ANOMALY></meanElements><tleParameters><EPHEMERIS_TYPE>0</EPHEMERIS_TYPE><CLASSIFICATION_TYPE>U</CLASSIFICATION_TYPE><NORAD_CAT_ID>64524</NORAD_CAT_ID><ELEMENT_SET_NO>999</ELEMENT_SET_NO><REV_AT_EPOCH>937</REV_AT_EPOCH><BSTAR>.22289E-2</BSTAR><MEAN_MOTION_DOT>.56078E-3</MEAN_MOTION_DOT><MEAN_MOTION_DDOT>0</MEAN_MOTION_DDOT></tleParameters></data></segment></body></omm>
<omm id="CCSDS_OMM_VERS" version="2.0">
<header><CREATION_DATE/><ORIGINATOR/></header><body><segment><metadata><OBJECT_NAME>KUIPER-00065</OBJECT_NAME><OBJECT_ID>2025-134AB</OBJECT_ID><CENTER_NAME>EARTH</CENTER_NAME><REF_FRAME>TEME</REF_FRAME><TIME_SYSTEM>UTC</TIME_SYSTEM><MEAN_ELEMENT_THEORY>SGP4</MEAN_ELEMENT_THEORY></metadata><data><meanElements><EPOCH>2025-08-16T10:00:01.999584</EPOCH><MEAN_MOTION>15.14779301</MEAN_MOTION><ECCENTRICITY>.0008033</ECCENTRICITY><INCLINATION>51.8855</INCLINATION><RA_OF_ASC_NODE>72.7411</RA_OF_ASC_NODE><ARG_OF_PERICENTER>314.9046</ARG_OF_PERICENTER><MEAN_ANOMALY>158.5547</MEAN_ANOMALY></meanElements><tleParameters><EPHEMERIS_TYPE>0</EPHEMERIS_TYPE><CLASSIFICATION_TYPE>U</CLASSIFICATION_TYPE><NORAD_CAT_ID>64525</NORAD_CAT_ID><ELEMENT_SET_NO>999</ELEMENT_SET_NO><REV_AT_EPOCH>928</REV_AT_EPOCH><BSTAR>.23973E-2</BSTAR><MEAN_MOTION_DOT>.45051E-3</MEAN_MOTION_DOT><MEAN_MOTION_DDOT>0</MEAN_MOTION_DDOT></tleParameters></data></segment></body></omm>
<omm id="CCSDS_OMM_VERS" version="2.0">
<header><CREATION_DATE/><ORIGINATOR/></header><body><segment><metadata><OBJECT_NAME>KUIPER-00066</OBJECT_NAME><OBJECT_ID>2025-134AC</OBJECT_ID><CENTER_NAME>EARTH</CENTER_NAME><REF_FRAME>TEME</REF_FRAME><TIME_SYSTEM>UTC</TIME_SYSTEM><MEAN_ELEMENT_THEORY>SGP4</MEAN_ELEMENT_THEORY></metadata><data><meanElements><EPOCH>2025-08-16T10:00:01.999584</EPOCH><MEAN_MOTION>15.23503515</MEAN_MOTION><ECCENTRICITY>.0003762</ECCENTRICITY><INCLINATION>51.8853</INCLINATION><RA_OF_ASC_NODE>70.9427</RA_OF_ASC_NODE><ARG_OF_PERICENTER>294.4679</ARG_OF_PERICENTER><MEAN_ANOMALY>37.5764</MEAN_ANOMALY></meanElements><tleParameters><EPHEMERIS_TYPE>0</EPHEMERIS_TYPE><CLASSIFICATION_TYPE>U</CLASSIFICATION_TYPE><NORAD_CAT_ID>64526</NORAD_CAT_ID><ELEMENT_SET_NO>999</ELEMENT_SET_NO><REV_AT_EPOCH>907</REV_AT_EPOCH><BSTAR>.14769E-2</BSTAR><MEAN_MOTION_DOT>.35577E-3</MEAN_MOTION_DOT><MEAN_MOTION_DDOT>0</MEAN_MOTION_DDOT></tleParameters></data></segment></body></omm>
<omm id="CCSDS_OMM_VERS" version="2.0">
<header><CREATION_DATE/><ORIGINATOR/></header><body><segment><metadata><OBJECT_NAME>KUIPER-00069</OBJECT_NAME><OBJECT_ID>2025-151A</OBJECT_ID><CENTER_NAME>EARTH</CENTER_NAME><REF_FRAME>TEME</REF_FRAME><TIME_SYSTEM>UTC</TIME_SYSTEM><MEAN_ELEMENT_THEORY>SGP4</MEAN_ELEMENT_THEORY></metadata><data><meanElements><EPOCH>2025-08-15T23:32:21.817248</EPOCH><MEAN_MOTION>15.36139582</MEAN_MOTION><ECCENTRICITY>.0005188</ECCENTRICITY><INCLINATION>51.8772</INCLINATION><RA_OF_ASC_NODE>139.4703</RA_OF_ASC_NODE><ARG_OF_PERICENTER>242.7806</ARG_OF_PERICENTER><MEAN_ANOMALY>117.2652</MEAN_ANOMALY></meanElements><tleParameters><EPHEMERIS_TYPE>0</EPHEMERIS_TYPE><CLASSIFICATION_TYPE>U</CLASSIFICATION_TYPE><NORAD_CAT_ID>64816</NORAD_CAT_ID><ELEMENT_SET_NO>999</ELEMENT_SET_NO><REV_AT_EPOCH>589</REV_AT_EPOCH><BSTAR>.64958E-3</BSTAR><MEAN_MOTION_DOT>.22916E-3</MEAN_MOTION_DOT><MEAN_MOTION_DDOT>0</MEAN_MOTION_DDOT></tleParameters></data></segment></body></omm>
<omm id="CCSDS_OMM_VERS" version="2.0">
<header><CREATION_DATE/><ORIGINATOR/></header><body><segment><metadata><OBJECT_NAME>KUIPER-00070</OBJECT_NAME><OBJECT_ID>2025-151B</OBJECT_ID><CENTER_NAME>EARTH</CENTER_NAME><REF_FRAME>TEME</REF_FRAME><TIME_SYSTEM>UTC</TIME_SYSTEM><MEAN_ELEMENT_THEORY>SGP4</MEAN_ELEMENT_THEORY></metadata><data><meanElements><EPOCH>2025-08-16T10:00:01.999584</EPOCH><MEAN_MOTION>15.18139791</MEAN_MOTION><ECCENTRICITY>.0006631</ECCENTRICITY><INCLINATION>51.8881</INCLINATION><RA_OF_ASC_NODE>138.7958</RA_OF_ASC_NODE><ARG_OF_PERICENTER>276.1638</ARG_OF_PERICENTER><MEAN_ANOMALY>23.1658</MEAN_ANOMALY></meanElements><tleParameters><EPHEMERIS_TYPE>0</EPHEMERIS_TYPE><CLASSIFICATION_TYPE>U</CLASSIFICATION_TYPE><NORAD_CAT_ID>64817</NORAD_CAT_ID><ELEMENT_SET_NO>999</ELEMENT_SET_NO><REV_AT_EPOCH>593</REV_AT_EPOCH><BSTAR>-.11846E-2</BSTAR><MEAN_MOTION_DOT>-.2475E-3</MEAN_MOTION_DOT><MEAN_MOTION_DDOT>0</MEAN_MOTION_DDOT></tleParameters></data></segment></body></omm>

</ndm>
