KUIPER-00061            
1 64521U 25134X   25228.27642686  .00035347  00000+0  99264-3 0  9997
2 64521  51.8754  71.4483 0006351 296.1214  63.9119 15.36190453  9057
KUIPER-00062            
1 64522U 25134Y   25228.41668981  .00036428  00000+0  18003-2 0  9992
2 64522  51.8828  72.1992 0008165 310.4253 165.5289 15.17480349  9053
KUIPER-00063            
1 64523U 25134Z   25228.41668981  .00046838  00000+0  21341-2 0  9998
2 64523  51.8794  71.4399 0005488 245.5250 205.8835 15.20196038  9068
KUIPER-00064            
1 64524U 25134AA  25228.41668981  .00056078  00000+0  22289-2 0  9998
2 64524  51.8828  70.9444 0002359  10.4554 352.9574 15.24759377  9375
KUIPER-00065            
1 64525U 25134AB  25228.41668981  .00045051  00000+0  23973-2 0  9999
2 64525  51.8855  72.7411 0008033 314.9046 158.5547 15.14779301  9281
KUIPER-00066            
1 64526U 25134AC  25228.41668981  .00035577  00000+0  14769-2 0  9995
2 64526  51.8853  70.9427 0003762 294.4679  37.5764 15.23503515  9071
KUIPER-00069            
1 64816U 25151A   25227.98080807  .00022916  00000+0  64958-3 0  9991
2 64816  51.8772 139.4703 0005188 242.7806 117.2652 15.36139582  5894
KUIPER-00070            
1 64817U 25151B   25228.41668981 -.00024750  00000+0 -11846-2 0  9993
2 64817  51.8881 138.7958 0006631 276.1638  23.1658 15.18139791  5936
